NORAD_CAT_ID,OBJECT_NAME,OBJECT_TYPE,EPOCH,MEAN_MOTION,ECCENTRICITY,INCLINATION,RA_OF_ASC_NODE,ARG_OF_PERICENTER,MEAN_ANOMALY,BSTAR,MEAN_MOTION_DOT,MEAN_MOTION_DDOT,TLE_LINE0,TLE_LINE1,TLE_LINE2,SEMIMAJOR_AXIS,PERIOD,APOGEE,PERIGEE,DECAYED
53794.0,STARLINK-4730,PAYLOAD,2024-05-14 09:41:14,15.08859751,0.0001258,53.2168,16.0667,106.6559,253.4572,0.0012925,0.00020353,0.0,0 STARLINK-4730,1 53794U 22111X   24135.40364273  .00020353  00000-0  12925-2 0  9993,2 53794  53.2168  16.0667 0001258 106.6559 253.4572 15.08859751 92603,6917.82,95.436,540.555,538.815,0.0
53794.0,STARLINK-4730,PAYLOAD,2024-05-14 22:24:17,15.08889754,0.0001323,53.2164,13.6868,98.5946,261.5196,0.00090913,0.0001423,0.0,0 STARLINK-4730,1 53794U 22111X   24135.93353962  .00014230  00000-0  90913-3 0  9995,2 53794  53.2164  13.6868 0001323  98.5946 261.5196 15.08889754 93482,6917.728,95.434,540.509,538.678,0.0
53794.0,STARLINK-4730,PAYLOAD,2024-05-15 01:35:03,15.08909846,0.0001684,53.2172,13.0903,101.261,258.8572,0.0009963,0.00015634,0.0,0 STARLINK-4730,1 53794U 22111X   24136.06600921  .00015634  00000-0  99630-3 0  9994,2 53794  53.2172  13.0903 0001684 101.2610 258.8572 15.08909846 92701,6917.667,95.433,540.697,538.367,0.0
53794.0,STARLINK-4730,PAYLOAD,2024-05-15 20:39:40,15.08858337,0.0001349,53.2189,9.523,83.4131,276.7015,-0.00010166,-1.906e-05,0.0,0 STARLINK-4730,1 53794U 22111X   24136.86088647 -.00001906  00000-0 -10166-3 0  9993,2 53794  53.2189   9.5230 0001349  83.4131 276.7015 15.08858337 92821,6917.824,95.436,540.623,538.756,0.0
53794.0,STARLINK-4730,PAYLOAD,2024-05-15 22:15:03,15.08858357,0.0001282,53.2187,9.2256,67.8944,292.2184,6.2401e-05,7.06e-06,0.0,0 STARLINK-4730,1 53794U 22111X   24136.92712654  .00000706  00000-0  62401-4 0  9997,2 53794  53.2187   9.2256 0001282  67.8944 292.2184 15.08858357 93630,6917.824,95.436,540.576,538.802,0.0
53794.0,STARLINK-4730,PAYLOAD,2024-05-16 01:25:49,15.08858638,0.0001329,53.2181,8.6291,69.394,290.7195,0.00033923,5.118e-05,0.0,0 STARLINK-4730,1 53794U 22111X   24137.05960588  .00005118  00000-0  33923-3 0  9991,2 53794  53.2181   8.6291 0001329  69.3940 290.7195 15.08858638 93650,6917.823,95.436,540.608,538.769,0.0
53794.0,STARLINK-4730,PAYLOAD,2024-05-16 15:44:18,15.08845031,0.0001591,53.216,5.9529,72.3989,287.7177,0.00036097,5.462e-05,0.0,0 STARLINK-4730,1 53794U 22111X   24137.65576848  .00005462  00000-0  36097-3 0  9996,2 53794  53.2160   5.9529 0001591  72.3989 287.7177 15.08845031 92949,6917.865,95.437,540.831,538.629,0.0
53794.0,STARLINK-4730,PAYLOAD,2024-05-17 21:56:38,15.08830865,7.07e-05,53.2191,0.3048,332.2512,27.8442,0.00010479,1.38e-05,0.0,0 STARLINK-4730,1 53794U 22111X   24138.91433892  .00001380  00000-0  10479-3 0  9998,2 53794  53.2191   0.3048 0000707 332.2512  27.8442 15.08830865 93135,6917.908,95.438,540.262,539.284,0.0
53794.0,STARLINK-4730,PAYLOAD,2024-05-18 07:28:57,15.0884172,0.0001284,53.2207,358.523,96.7529,263.361,0.00018785,2.703e-05,0.0,0 STARLINK-4730,1 53794U 22111X   24139.31177580  .00002703  00000-0  18785-3 0  9990,2 53794  53.2207 358.5230 0001284  96.7529 263.3610 15.08841720 93197,6917.875,95.437,540.628,538.852,0.0
53794.0,STARLINK-4730,PAYLOAD,2024-05-18 20:12:01,15.08857569,0.0001466,53.2178,356.1427,89.6339,270.4821,0.00054561,8.41e-05,0.0,0 STARLINK-4730,1 53794U 22111X   24139.84168951  .00008410  00000-0  54561-3 0  9993,2 53794  53.2178 356.1427 0001466  89.6339 270.4821 15.08857569 93278,6917.827,95.436,540.706,538.678,0.0
53794.0,STARLINK-4730,PAYLOAD,2024-05-18 21:47:24,15.08874643,0.0001214,53.2167,355.8455,106.5222,253.5904,0.00090989,0.00014236,0.0,0 STARLINK-4730,1 53794U 22111X   24139.90792344  .00014236  00000-0  90989-3 0  9996,2 53794  53.2167 355.8455 0001214 106.5222 253.5904 15.08874643 94080,6917.775,95.435,540.479,538.8,0.0
53794.0,STARLINK-4730,PAYLOAD,2024-05-19 20:02:49,15.08837086,0.000133,53.2167,351.6806,136.6599,223.4497,-0.00011712,-2.151e-05,0.0,0 STARLINK-4730,1 53794U 22111X   24140.83529360 -.00002151  00000-0 -11712-3 0  9998,2 53794  53.2167 351.6806 0001330 136.6599 223.4497 15.08837086 93424,6917.889,95.438,540.674,538.834,0.0
53794.0,STARLINK-4730,PAYLOAD,2024-05-20 13:32:04,15.08833549,8.96e-05,53.2163,348.4081,99.1954,260.914,7.2216e-05,8.62e-06,0.0,0 STARLINK-4730,1 53794U 22111X   24141.56394106  .00000862  00000-0  72216-4 0  9999,2 53794  53.2163 348.4081 0000896  99.1954 260.9140 15.08833549 94335,6917.9,95.438,540.385,539.145,0.0
53794.0,STARLINK-4730,PAYLOAD,2024-05-20 21:28:59,15.08856604,0.0001107,53.217,346.9232,84.9257,275.1861,0.00072499,0.00011274,0.0,0 STARLINK-4730,1 53794U 22111X   24141.89513189  .00011274  00000-0  72499-3 0  9990,2 53794  53.2170 346.9232 0001107  84.9257 275.1861 15.08856604 93589,6917.83,95.437,540.46,538.929,0.0
53794.0,STARLINK-4730,PAYLOAD,2024-05-21 19:44:23,15.08846546,0.0001104,53.2165,342.7636,74.9778,285.1336,0.00030313,4.541e-05,0.0,0 STARLINK-4730,1 53794U 22111X   24142.82249947  .00004541  00000-0  30313-3 0  9990,2 53794  53.2165 342.7636 0001104  74.9778 285.1336 15.08846546 93727,6917.86,95.437,540.489,538.962,0.0
53794.0,STARLINK-4730,PAYLOAD,2024-05-22 19:35:11,15.088439,0.0001337,53.2174,338.3004,67.8068,292.3066,0.00011875,1.603e-05,0.0,0 STARLINK-4730,1 53794U 22111X   24143.81609974  .00001603  00000-0  11875-3 0  9998,2 53794  53.2174 338.3004 0001337  67.8068 292.3066 15.08843900 93875,6917.868,95.437,540.658,538.809,0.0
53794.0,STARLINK-4730,PAYLOAD,2024-05-22 22:45:57,15.08846359,0.0001262,53.2177,337.7038,76.7447,283.3686,0.00012744,1.741e-05,0.0,0 STARLINK-4730,1 53794U 22111X   24143.94857828  .00001741  00000-0  12744-3 0  9994,2 53794  53.2177 337.7038 0001262  76.7447 283.3686 15.08846359 94695,6917.861,95.437,540.599,538.853,0.0
53794.0,STARLINK-4730,PAYLOAD,2024-05-23 19:25:58,15.08838749,0.0001426,53.2183,333.8346,75.134,284.981,7.5037e-05,9.06e-06,0.0,0 STARLINK-4730,1 53794U 22111X   24144.80970292  .00000906  00000-0  75037-4 0  9998,2 53794  53.2183 333.8346 0001426  75.1340 284.9810 15.08838749 94025,6917.884,95.438,540.736,538.763,0.0
53794.0,STARLINK-4730,PAYLOAD,2024-05-24 12:55:13,15.08822266,0.0001405,53.2184,330.5654,101.7107,258.4042,0.00048372,7.415e-05,0.0,0 STARLINK-4730,1 53794U 22111X   24145.53834826  .00007415  00000-0  48372-3 0  9994,2 53794  53.2184 330.5654 0001405 101.7107 258.4042 15.08822266 94138,6917.935,95.439,540.772,538.828,0.0
53794.0,STARLINK-4730,PAYLOAD,2024-05-24 19:16:44,15.08865087,0.000113,53.2176,329.3878,116.2813,243.8296,-0.0001662,-2.934e-05,0.0,0 STARLINK-4730,1 53794U 22111X   24145.80329132 -.00002934  00000-0 -16620-3 0  9997,2 53794  53.2176 329.3878 0001130 116.2813 243.8296 15.08865087 94174,6917.804,95.436,540.45,538.887,0.0
53794.0,STARLINK-4730,PAYLOAD,2024-05-25 17:32:09,15.08821657,0.0003583,53.2178,325.2261,157.4318,202.6833,-0.00035782,-5.977e-05,0.0,0 STARLINK-4730,1 53794U 22111X   24146.73066881 -.00005977  00000-0 -35782-3 0  9999,2 53794  53.2178 325.2261 0003583 157.4318 202.6833 15.08821657 94319,6917.936,95.439,542.28,537.323,0.0
53794.0,STARLINK-4730,PAYLOAD,2024-05-26 04:39:52,15.08814297,0.0003817,53.2172,323.1357,161.251,198.8623,-0.00042627,-7.063e-05,0.0,0 STARLINK-4730,1 53794U 22111X   24147.19435629 -.00007063  00000-0 -42627-3 0  9994,2 53794  53.2172 323.1357 0003817 161.2510 198.8623 15.08814297 95184,6917.959,95.439,542.465,537.183,0.0
53794.0,STARLINK-4730,PAYLOAD,2024-05-27 04:30:35,15.08869905,0.0003385,53.2181,318.6758,164.8041,195.3054,0.00063234,9.798e-05,0.0,0 STARLINK-4730,1 53794U 22111X   24148.18790609  .00009798  00000-0  63234-3 0  9998,2 53794  53.2181 318.6758 0003385 164.8041 195.3054 15.08869905 94530,6917.789,95.436,541.996,537.312,0.0
53794.0,STARLINK-4730,PAYLOAD,2024-05-27 20:24:29,15.0884497,0.0001313,53.218,315.6979,113.7628,246.3502,0.00013221,1.817e-05,0.0,0 STARLINK-4730,1 53794U 22111X   24148.85033976  .00001817  00000-0  13221-3 0  9994,2 53794  53.2180 315.6979 0001313 113.7628 246.3502 15.08844970 94635,6917.865,95.437,540.639,538.822,0.0
53794.0,STARLINK-4730,PAYLOAD,2024-05-28 10:42:57,15.0884815,0.0001202,53.2179,313.0281,104.98,255.1325,-2.3914e-05,-6.69e-06,0.0,0 STARLINK-4730,1 53794U 22111X   24149.44650375 -.00000669  00000-0 -23914-4 0  9995,2 53794  53.2179 313.0281 0001202 104.9800 255.1325 15.08848150 95526,6917.855,95.437,540.552,538.889,0.0
53794.0,STARLINK-4730,PAYLOAD,2024-05-28 17:04:30,15.08841965,0.0001177,53.2181,311.8367,100.0175,260.095,8.2643e-06,-1.56e-06,0.0,0 STARLINK-4730,1 53794U 22111X   24149.71146534 -.00000156  00000-0  82643-5 0  9997,2 53794  53.2181 311.8367 0001177 100.0175 260.0950 15.08841965 94764,6917.874,95.437,540.554,538.925,0.0
53794.0,STARLINK-4730,PAYLOAD,2024-05-29 10:33:45,15.08837238,0.0001244,53.2173,308.5654,111.957,248.1555,2.9565e-05,1.83e-06,0.0,0 STARLINK-4730,1 53794U 22111X   24150.44010674  .00000183  00000-0  29565-4 0  9996,2 53794  53.2173 308.5654 0001244 111.9570 248.1555 15.08837238 95679,6917.889,95.438,540.614,538.893,0.0
53794.0,STARLINK-4730,PAYLOAD,2024-05-29 16:55:17,15.08844535,0.000112,53.2179,307.3761,99.4579,260.6539,-3.0927e-05,-7.8e-06,0.0,0 STARLINK-4730,1 53794U 22111X   24150.70506517 -.00000780  00000-0 -30927-4 0  9990,2 53794  53.2179 307.3761 0001120  99.4579 260.6539 15.08844535 95717,6917.867,95.437,540.506,538.957,0.0
53794.0,STARLINK-4730,PAYLOAD,2024-05-30 13:35:18,15.08840144,0.0001197,53.2168,303.5114,69.8926,290.2195,8.1422e-05,1.008e-05,0.0,0 STARLINK-4730,1 53794U 22111X   24151.56618708  .00001008  00000-0  81422-4 0  9999,2 53794  53.2168 303.5114 0001197  69.8926 290.2195 15.08840144 95041,6917.88,95.438,540.573,538.917,0.0
53794.0,STARLINK-4730,PAYLOAD,2024-05-30 16:46:04,15.08842506,0.0001297,53.2169,302.9167,68.8567,291.2564,0.00010048,1.312e-05,0.0,0 STARLINK-4730,1 53794U 22111X   24151.69866540  .00001312  00000-0  10048-3 0  9995,2 53794  53.2169 302.9167 0001297  68.8567 291.2564 15.08842506 95869,6917.873,95.437,540.635,538.84,0.0
